NAVSTAR 48 (USA 151)    
1 26407U 00040A   26193.33717079  .00000094  00000+0  00000+0 0  9992
2 26407  54.8488 214.1632 0120560 302.7049 140.2080  2.00557796190451
NAVSTAR 51 (USA 166)    
1 27663U 03005A   26193.53047476  .00000092  00000+0  00000+0 0  9998
2 27663  54.8793 213.9618 0148229  53.1621 305.5100  2.00559138171811
NAVSTAR 54 (USA 177)    
1 28190U 04009A   26193.28785558 -.00000005  00000+0  00000+0 0  9996
2 28190  54.8090 274.6722 0117089 174.2150 161.8808  2.00553765163447
NAVSTAR 56 (USA 180)    
1 28474U 04045A   26192.73464934 -.00000085  00000+0  00000+0 0  9990
2 28474  55.1204 323.9078 0170119 316.9752  44.7539  2.00556859158925
NAVSTAR 57 (USA 183)    
1 28874U 05038A   26193.35631654  .00000001  00000+0  00000+0 0  9998
2 28874  54.8577 272.1607 0128175 296.3811 118.7431  2.00563854152349
INMARSAT 4-F2           
1 28899U 05044A   26193.52003396 -.00000264  00000+0  00000+0 0  9999
2 28899   5.1272  43.6553 0002787  59.8385 157.6233  1.00270891 75774
NAVSTAR 58 (USA 190)    
1 29486U 06042A   26193.60865181  .00000019  00000+0  00000+0 0  9995
2 29486  54.7127 150.3297 0107099  55.0722  81.1518  2.00568349144900
NAVSTAR 59 (USA 192)    
1 29601U 06052A   26192.84931004  .00000101  00000+0  00000+0 0  9990
2 29601  54.9326 213.0286 0084790  90.9929 270.0411  2.00559469143909
NAVSTAR 60 (USA 196)    
1 32260U 07047A   26193.15488074 -.00000041  00000+0  00000+0 0  9993
2 32260  54.1134  79.0366 0167686  87.9192 274.0481  2.00553998137316
COSMOS 2433 [GLONASS-M] 
1 32275U 07052A   26191.84776337 -.00000062  00000+0  00000+0 0  9994
2 32275  65.5625 315.1381 0003392 203.0239 156.9646  2.13104163145567
COSMOS 2432 [GLONASS-M] 
1 32276U 07052B   26193.37797424 -.00000064  00000+0  00000+0 0  9997
2 32276  65.5774 315.2149 0007422 322.9624  74.7454  2.13103098145620
NAVSTAR 61 (USA 199)    
1 32384U 07062A   26192.44748571 -.00000003  00000+0  00000+0 0  9997
2 32384  55.0124 273.1765 0036030 167.2486 169.8682  2.00561362135998
COSMOS 2434 [GLONASS-M] 
1 32393U 07065A   26192.61775593  .00000105  00000+0  00000+0 0  9995
2 32393  64.3201 191.0916 0001261 325.8599 154.5630  2.13101327144290
COSMOS 2436 [GLONASS-M] 
1 32395U 07065C   26192.29089645  .00000110  00000+0  00000+0 0  9993
2 32395  64.3285 191.1750 0017323 353.6446   8.2320  2.13100061144247
NAVSTAR 62 (USA 201)    
1 32711U 08012A   26192.56529352  .00000029  00000+0  00000+0 0  9991
2 32711  54.4998 148.9509 0211647 248.1155 109.5888  2.00572989134243
NAVSTAR 64 (USA 206)    
1 35752U 09043A   26193.30253226 -.00000057  00000+0  00000+0 0  9993
2 35752  56.2260  26.4662 0053745  84.2562  95.9378  2.00552847123866
COSMOS 2456 [GLONASS-M] 
1 36111U 09070A   26193.43484038 -.00000015  00000+0  00000+0 0  9998
2 36111  65.0257  70.1116 0003693 339.5842 205.9646  2.13103684128966
COSMOS 2457 [GLONASS-M] 
1 36112U 09070B   26192.98719771 -.00000017  00000+0  00000+0 0  9995
2 36112  65.0111  69.9702 0004042 121.4327 207.8786  2.13101194128957
COSMOS 2460 [GLONASS-M] 
1 36402U 10007C   26192.63988207 -.00000063  00000+0  00000+0 0  9994
2 36402  65.4052 313.6400 0001813 140.7417 284.0802  2.13101671127256
NAVSTAR 65 (USA 213)    
1 36585U 10022A   26192.37366262  .00000105  00000+0  00000+0 0  9991
2 36585  54.2688 207.5878 0126647  66.1538 283.0764  2.00563533118078
BEIDOU-2 IGSO-1         
1 36828U 10036A   26192.85182554 -.00000089  00000+0  00000+0 0  9991
2 36828  54.3064 162.7376 0058925 225.2565 315.6066  1.00264608 58343
BEIDOU-2 G4             
1 37210U 10057A   26193.48169984 -.00000116  00000+0  00000+0 0  9993
2 37210   3.7060  68.7864 0005629 185.0153   9.9176  1.00269913 57549
BEIDOU-2 IGSO-2         
1 37256U 10068A   26193.68370150 -.00000189  00000+0  00000+0 0  9996
2 37256  47.5013 271.5143 0057122 213.7768 159.7281  1.00274134 57051
BEIDOU-2 IGSO-3         
1 37384U 11013A   26192.51462598 -.00000168  00000+0  00000+0 0  9995
2 37384  62.4411  39.9226 0035206 183.2728 358.1795  1.00261228 55902
GSAT-8                  
1 37605U 11022A   26193.50261347  .00000083  00000+0  00000+0 0  9995
2 37605   2.1939  81.5149 0002729 165.5288 279.3686  1.00272230 53477
BEIDOU-2 IGSO-4         
1 37763U 11038A   26192.95235030  .00000001  00000+0  00000+0 0  9995
2 37763  54.6042 165.4533 0160284 231.4099 330.0593  1.00279662 54897
GSAT0101 (GALILEO-PFM)  
1 37846U 11060A   26192.48495571 -.00000086  00000+0  00000+0 0  9992
2 37846  56.9857 341.1030 0002335  61.2388 298.7767  1.70475532 91531
GSAT0102 (GALILEO-FM2)  
1 37847U 11060B   26193.00368770 -.00000088  00000+0  00000+0 0  9994
2 37847  56.9863 341.0894 0002305  10.3981 353.6194  1.70475812 91555
COSMOS 2476 [GLONASS-M] 
1 37867U 11064A   26193.54156506 -.00000014  00000+0  00000+0 0  9990
2 37867  65.2838  72.0161 0022178 236.1461 299.6024  2.13103826114302
COSMOS 2477 [GLONASS-M] 
1 37868U 11064B   26193.11700314 -.00000016  00000+0  00000+0 0  9998
2 37868  65.2902  72.1100 0019148 236.9167 153.3861  2.13103016114297
COSMOS 2475 [GLONASS-M] 
1 37869U 11064C   26193.40939972 -.00000015  00000+0  00000+0 0  9994
2 37869  65.2972  72.1216 0024680 250.7773 318.8539  2.13101673114306
